[{"OBJECT_NAME":"SKYSAT-A","OBJECT_ID":"2013-066C","EPOCH":"2026-03-09T23:11:31.147872","MEAN_MOTION":15.12354605,"ECCENTRICITY":0.00202509,"INCLINATION":97.395,"RA_OF_ASC_NODE":121.5014,"ARG_OF_PERICENTER":299.3966,"MEAN_ANOMALY":60.5243,"EPHEMERIS_TYPE":0,"CLASSIFICATION_TYPE":"U","NORAD_CAT_ID":39418,"ELEMENT_SET_NO":999,"REV_AT_EPOCH":67348,"BSTAR":0.0002547658,"MEAN_MOTION_DOT":4.374e-5,"MEAN_MOTION_DDOT":0},{"OBJECT_NAME":"STARLINK-3588","OBJECT_ID":"2022-022T","EPOCH":"2026-03-09T05:17:43.014336","MEAN_MOTION":15.08857613,"ECCENTRICITY":0.00015494,"INCLINATION":53.2198,"RA_OF_ASC_NODE":11.2242,"ARG_OF_PERICENTER":99.0191,"MEAN_ANOMALY":261.0976,"EPHEMERIS_TYPE":0,"CLASSIFICATION_TYPE":"U","NORAD_CAT_ID":51869,"ELEMENT_SET_NO":999,"REV_AT_EPOCH":22304,"BSTAR":0.00023470848,"MEAN_MOTION_DOT":3.451e-5,"MEAN_MOTION_DDOT":0}]
